NORAD_CAT_ID,OBJECT_NAME,OBJECT_TYPE,EPOCH,MEAN_MOTION,ECCENTRICITY,INCLINATION,RA_OF_ASC_NODE,ARG_OF_PERICENTER,MEAN_ANOMALY,BSTAR,MEAN_MOTION_DOT,MEAN_MOTION_DDOT,TLE_LINE0,TLE_LINE1,TLE_LINE2,SEMIMAJOR_AXIS,PERIOD,APOGEE,PERIGEE,DECAYED
49447.0,STARLINK-3115,PAYLOAD,2024-05-23 18:30:56,15.08877278,0.0001862,53.2186,279.1576,60.3907,299.7271,0.00073745,0.0001148,0.0,0 STARLINK-3115,1 49447U 21104AR  24144.77148807  .00011480  00000-0  73745-3 0  9996,2 49447  53.2186 279.1576 0001862  60.3907 299.7271 15.08877278140975,6917.766,95.435,540.92,538.343,0.0
49447.0,STARLINK-3115,PAYLOAD,2024-05-24 12:00:11,15.08847369,9.17e-05,53.2169,275.8898,111.6379,248.4711,-0.0001064,-1.981e-05,0.0,0 STARLINK-3115,1 49447U 21104AR  24145.50012845 -.00001981  00000-0 -10640-3 0  9992,2 49447  53.2169 275.8898 0000917 111.6379 248.4711 15.08847369141080,6917.858,95.437,540.357,539.088,0.0
49447.0,STARLINK-3115,PAYLOAD,2024-05-24 13:35:34,15.0884131,8.29e-05,53.2135,275.5935,127.9645,232.1422,-0.00013406,-2.421e-05,0.0,0 STARLINK-3115,1 49447U 21104AR  24145.56636826 -.00002421  00000-0 -13406-3 0  9992,2 49447  53.2135 275.5935 0000829 127.9645 232.1422 15.08841310140022,6917.876,95.437,540.315,539.168,0.0
49447.0,STARLINK-3115,PAYLOAD,2024-05-24 15:10:57,15.08839172,6.82e-05,53.2133,275.2944,132.2661,227.8389,-0.00013986,-2.513e-05,0.0,0 STARLINK-3115,1 49447U 21104AR  24145.63260854 -.00002513  00000-0 -13986-3 0  9999,2 49447  53.2133 275.2944 0000682 132.2661 227.8389 15.08839172140038,6917.883,95.438,540.22,539.276,0.0
49447.0,STARLINK-3115,PAYLOAD,2024-05-25 13:26:21,15.08849754,7.33e-05,53.2146,271.1315,55.4105,304.6956,-0.00096752,-0.00015656,0.0,0 STARLINK-3115,1 49447U 21104AR  24146.55997627 -.00015656  00000-0 -96752-3 0  9990,2 49447  53.2146 271.1315 0000733  55.4105 304.6956 15.08849754141240,6917.851,95.437,540.223,539.208,0.0
49447.0,STARLINK-3115,PAYLOAD,2024-05-25 15:01:52,15.08668884,0.0001083,53.2159,270.8439,354.2143,5.8836,-0.002944,-0.0004662,0.0,0 STARLINK-3115,1 49447U 21104AR  24146.62630410 -.00046620  00000-0 -29440-2 0  9996,2 49447  53.2159 270.8439 0001083 354.2143   5.8836 15.08668884140180,6918.403,95.448,541.018,539.519,0.0
49447.0,STARLINK-3115,PAYLOAD,2024-05-25 18:12:25,15.08936693,0.0001012,53.2162,270.2476,29.3678,330.7371,0.00040218,6.135e-05,0.0,0 STARLINK-3115,1 49447U 21104AR  24146.75863277  .00006135  00000-0  40218-3 0  9991,2 49447  53.2162 270.2476 0001012  29.3678 330.7371 15.08936693141275,6917.585,95.431,540.15,538.75,0.0
49447.0,STARLINK-3115,PAYLOAD,2024-05-25 22:58:40,15.08858721,0.0001328,53.2162,269.3553,57.2085,302.9035,-0.00023124,-3.968e-05,0.0,0 STARLINK-3115,1 49447U 21104AR  24146.95741574 -.00003968  00000-0 -23124-3 0  9998,2 49447  53.2162 269.3553 0001328  57.2085 302.9035 15.08858721141309,6917.823,95.436,540.607,538.769,0.0
49447.0,STARLINK-3115,PAYLOAD,2024-05-26 13:17:09,15.08835852,9.24e-05,53.2168,266.6795,88.3565,271.7533,0.00024228,3.57e-05,0.0,0 STARLINK-3115,1 49447U 21104AR  24147.55358487  .00003570  00000-0  24228-3 0  9995,2 49447  53.2168 266.6795 0000924  88.3565 271.7533 15.08835852141397,6917.893,95.438,540.397,539.119,0.0
49447.0,STARLINK-3115,PAYLOAD,2024-05-26 14:52:33,15.08825729,8.89e-05,53.2169,266.3823,115.2527,244.8557,0.00015159,2.125e-05,0.0,0 STARLINK-3115,1 49447U 21104AR  24147.61983279  .00002125  00000-0  15159-3 0  9993,2 49447  53.2169 266.3823 0000889 115.2527 244.8557 15.08825729140337,6917.924,95.438,540.404,539.174,0.0
49447.0,STARLINK-3115,PAYLOAD,2024-05-26 18:03:21,15.08798714,7.56e-05,53.2168,265.7872,73.1804,286.9271,-9.0611e-05,-1.728e-05,0.0,0 STARLINK-3115,1 49447U 21104AR  24147.75233563 -.00001728  00000-0 -90611-4 0  9999,2 49447  53.2168 265.7872 0000756  73.1804 286.9271 15.08798714141420,6918.007,95.44,540.395,539.349,0.0
49447.0,STARLINK-3115,PAYLOAD,2024-05-27 00:24:36,15.09044436,0.0002367,53.2168,264.5992,259.1289,100.9437,0.0021368,0.00034076,0.0,0 STARLINK-3115,1 49447U 21104AR  24148.01708387  .00034076  00000-0  21368-2 0  9991,2 49447  53.2168 264.5992 0002367 259.1289 100.9437 15.09044436141462,6917.256,95.425,540.758,537.483,0.0
49447.0,STARLINK-3115,PAYLOAD,2024-05-27 13:07:57,15.08827989,0.0001108,53.2184,262.2195,98.7068,261.4049,0.00023596,3.468e-05,0.0,0 STARLINK-3115,1 49447U 21104AR  24148.54719557  .00003468  00000-0  23596-3 0  9997,2 49447  53.2184 262.2195 0001108  98.7068 261.4049 15.08827989141546,6917.917,95.438,540.549,539.016,0.0
49447.0,STARLINK-3115,PAYLOAD,2024-05-27 14:43:19,15.08842534,0.0001332,53.2186,261.9268,111.7402,248.3732,0.00030805,4.618e-05,0.0,0 STARLINK-3115,1 49447U 21104AR  24148.61342480  .00004618  00000-0  30805-3 0  9991,2 49447  53.2186 261.9268 0001332 111.7402 248.3732 15.08842534140480,6917.873,95.437,540.659,538.816,0.0
49447.0,STARLINK-3115,PAYLOAD,2024-05-27 16:18:43,15.088369,0.0001196,53.219,261.6177,100.6059,259.5068,0.00021014,3.058e-05,0.0,0 STARLINK-3115,1 49447U 21104AR  24148.67967116  .00003058  00000-0  21014-3 0  9995,2 49447  53.2190 261.6177 0001196 100.6059 259.5068 15.08836900141560,6917.89,95.438,540.582,538.927,0.0
49447.0,STARLINK-3115,PAYLOAD,2024-05-28 14:34:08,15.08837909,0.0001116,53.2181,257.4538,88.2939,271.8181,1.8456e-05,6e-08,0.0,0 STARLINK-3115,1 49447U 21104AR  24149.60703740  .00000006  00000-0  18456-4 0  9997,2 49447  53.2181 257.4538 0001116  88.2939 271.8181 15.08837909140634,6917.887,95.438,540.524,538.98,0.0
49447.0,STARLINK-3115,PAYLOAD,2024-05-29 14:24:54,15.08842745,0.0001133,53.2182,252.9952,81.8245,278.2876,3.5654e-05,2.8e-06,0.0,0 STARLINK-3115,1 49447U 21104AR  24150.60063382  .00000280  00000-0  35654-4 0  9993,2 49447  53.2182 252.9952 0001133  81.8245 278.2876 15.08842745140785,6917.872,95.437,540.521,538.953,0.0
49447.0,STARLINK-3115,PAYLOAD,2024-05-30 12:40:19,15.08830047,0.0001068,53.2173,248.83,84.2782,275.8332,1.5132e-05,-4.7e-07,0.0,0 STARLINK-3115,1 49447U 21104AR  24151.52800547 -.00000047  00000-0  15132-4 0  9998,2 49447  53.2173 248.8300 0001068  84.2782 275.8332 15.08830047141992,6917.911,95.438,540.515,539.037,0.0
49447.0,STARLINK-3115,PAYLOAD,2024-05-30 14:15:42,15.08830524,0.0001077,53.2174,248.5324,89.5519,270.5596,1.5638e-05,-3.9e-07,0.0,0 STARLINK-3115,1 49447U 21104AR  24151.59424524 -.00000039  00000-0  15638-4 0  9994,2 49447  53.2174 248.5324 0001077  89.5519 270.5596 15.08830524140939,6917.909,95.438,540.519,539.029,0.0
49447.0,STARLINK-3115,PAYLOAD,2024-05-31 12:31:05,15.08848824,0.0001539,53.2177,244.3774,58.636,301.4782,0.00014087,1.955e-05,0.0,0 STARLINK-3115,1 49447U 21104AR  24152.52159316  .00001955  00000-0  14087-3 0  9995,2 49447  53.2177 244.3774 0001539  58.6360 301.4782 15.08848824142147,6917.853,95.437,540.783,538.654,0.0
49447.0,STARLINK-3115,PAYLOAD,2024-05-31 23:38:45,15.08862838,0.000106,53.2181,242.2888,101.9903,258.1208,0.00029835,4.467e-05,0.0,0 STARLINK-3115,1 49447U 21104AR  24152.98525278  .00004467  00000-0  29835-3 0  9997,2 49447  53.2181 242.2888 0001060 101.9903 258.1208 15.08862838142219,6917.811,95.436,540.409,538.942,0.0
49447.0,STARLINK-3115,PAYLOAD,2024-06-01 12:21:50,15.08858261,0.0001234,53.2188,239.9109,98.498,261.6152,0.00027825,4.145e-05,0.0,0 STARLINK-3115,1 49447U 21104AR  24153.51517270  .00004145  00000-0  27825-3 0  9990,2 49447  53.2188 239.9109 0001234  98.4980 261.6152 15.08858261142293,6917.825,95.436,540.543,538.836,0.0
49447.0,STARLINK-3115,PAYLOAD,2024-06-02 12:12:40,15.08830375,0.0001277,53.2187,235.4499,108.5806,251.5325,-0.00026486,-4.499e-05,0.0,0 STARLINK-3115,1 49447U 21104AR  24154.50879819 -.00004499  00000-0 -26486-3 0  9996,2 49447  53.2187 235.4499 0001277 108.5806 251.5325 15.08830375142445,6917.91,95.438,540.658,538.891,0.0
49447.0,STARLINK-3115,PAYLOAD,2024-06-02 15:23:26,15.08831407,0.0001092,53.2181,234.8561,106.085,254.0263,-0.00023015,-3.948e-05,0.0,0 STARLINK-3115,1 49447U 21104AR  24154.64127750 -.00003948  00000-0 -23015-3 0  9994,2 49447  53.2181 234.8561 0001092 106.0850 254.0263 15.08831407141398,6917.907,95.438,540.527,539.016,0.0
49447.0,STARLINK-3115,PAYLOAD,2024-06-03 05:41:54,15.08836051,0.0001154,53.2178,232.1803,102.7898,257.3223,-0.00014217,-2.549e-05,0.0,0 STARLINK-3115,1 49447U 21104AR  24155.23743282 -.00002549  00000-0 -14217-3 0  9994,2 49447  53.2178 232.1803 0001154 102.7898 257.3223 15.08836051142559,6917.892,95.438,540.556,538.959,0.0
49447.0,STARLINK-3115,PAYLOAD,2024-06-03 12:03:26,15.08846346,0.0001128,53.2174,230.9914,101.1234,258.9885,-5.5929e-05,-1.178e-05,0.0,0 STARLINK-3115,1 49447U 21104AR  24155.50238477 -.00001178  00000-0 -55929-4 0  9992,2 49447  53.2174 230.9914 0001128 101.1234 258.9885 15.08846346142595,6917.861,95.437,540.506,538.946,0.0
49447.0,STARLINK-3115,PAYLOAD,2024-06-03 21:35:43,15.08858274,0.0001149,53.2179,229.2072,101.663,258.4491,4.9669e-08,-2.87e-06,0.0,0 STARLINK-3115,1 49447U 21104AR  24155.89981440 -.00000287  00000-0  49669-7 0  9995,2 49447  53.2179 229.2072 0001149 101.6630 258.4491 15.08858274141583,6917.825,95.436,540.484,538.895,0.0
49447.0,STARLINK-3115,PAYLOAD,2024-06-04 03:57:17,15.08835976,0.0001285,53.2173,228.0198,114.2839,245.8287,0.00045672,6.987e-05,0.0,0 STARLINK-3115,1 49447U 21104AR  24156.16478987  .00006987  00000-0  45672-3 0  9991,2 49447  53.2173 228.0198 0001285 114.2839 245.8287 15.08835976142695,6917.893,95.438,540.647,538.869,0.0
49447.0,STARLINK-3115,PAYLOAD,2024-06-04 11:54:13,15.08853515,0.0001114,53.2161,226.5302,92.4394,267.6726,0.00063475,9.832e-05,0.0,0 STARLINK-3115,1 49447U 21104AR  24156.49598419  .00009832  00000-0  63475-3 0  9993,2 49447  53.2161 226.5302 0001114  92.4394 267.6726 15.08853515142741,6917.839,95.437,540.475,538.933,0.0
49447.0,STARLINK-3115,PAYLOAD,2024-06-04 21:26:31,15.08858049,0.0001111,53.2152,224.747,95.9179,264.194,0.00048904,7.508e-05,0.0,0 STARLINK-3115,1 49447U 21104AR  24156.89342057  .00007508  00000-0  48904-3 0  9990,2 49447  53.2152 224.7470 0001111  95.9179 264.1940 15.08858049141738,6917.825,95.436,540.459,538.922,0.0
